{
  "type": "FeatureCollection",
  "features": [
    {
      "type": "Feature",
      "properties": {
        "norad_id": 54741,
        "name": "GALAXY 35 (G-35)",
        "group": "intelsat",
        "lat": -0.03042406928222508,
        "lon": -124.8222740925643,
        "alt_km": 35776.1251904375,
        "timestamp": "2025-12-05T16:54:14.337578+00:00",
        "meta_object_name": "GALAXY 35 (G-35)",
        "meta_object_id": "2022-170A",
        "meta_epoch": "2025-12-05T04:26:26.705184",
        "meta_mean_motion": 1.00270387,
        "meta_eccentricity": 0.00027636,
        "meta_inclination": 0.0148,
        "meta_ra_of_asc_node": 12.6393,
        "meta_arg_of_pericenter": 250.2236,
        "meta_mean_anomaly": 144.8875,
        "meta_ephemeris_type": 0,
        "meta_classification_type": "U",
        "meta_norad_cat_id": 54741,
        "meta_element_set_no": 999,
        "meta_rev_at_epoch": 1094,
        "meta_bstar": 0,
        "meta_mean_motion_dot": 0,
        "meta_mean_motion_ddot": 0,
        "tle_line1": "1 54741U 22170A   25339.18503131  .00000000  00000+0  00000+0 0  9995",
        "tle_line2": "2 54741   0.0148  12.6393 0002763 250.2236 144.8875  1.00270387 10947"
      },
      "geometry": {
        "type": "Point",
        "coordinates": [
          -124.8222740925643,
          -0.03042406928222508
        ]
      }
    },
    {
      "type": "Feature",
      "properties": {
        "norad_id": 54742,
        "name": "GALAXY 36 (G-36)",
        "group": "intelsat",
        "lat": -0.029084408286005763,
        "lon": -120.69943623809577,
        "alt_km": 35783.8027071533,
        "timestamp": "2025-12-05T16:54:14.337589+00:00",
        "meta_object_name": "GALAXY 36 (G-36)",
        "meta_object_id": "2022-170B",
        "meta_epoch": "2025-12-05T03:45:38.745216",
        "meta_mean_motion": 1.00270998,
        "meta_eccentricity": 6.265e-05,
        "meta_inclination": 0.0154,
        "meta_ra_of_asc_node": 282.4728,
        "meta_arg_of_pericenter": 333.9341,
        "meta_mean_anomaly": 145.225,
        "meta_ephemeris_type": 0,
        "meta_classification_type": "U",
        "meta_norad_cat_id": 54742,
        "meta_element_set_no": 999,
        "meta_rev_at_epoch": 1082,
        "meta_bstar": 0,
        "meta_mean_motion_dot": -1.73e-06,
        "meta_mean_motion_ddot": 0,
        "tle_line1": "1 54742U 22170B   25339.15669844 -.00000173  00000+0  00000+0 0  9999",
        "tle_line2": "2 54742   0.0154 282.4728 0000626 333.9341 145.2250  1.00270998 10823"
      },
      "geometry": {
        "type": "Point",
        "coordinates": [
          -120.69943623809577,
          -0.029084408286005763
        ]
      }
    },
    {
      "type": "Feature",
      "properties": {
        "norad_id": 57493,
        "name": "GALAXY 37 (G-37)",
        "group": "intelsat",
        "lat": -0.030841060730139803,
        "lon": -158.71683456092921,
        "alt_km": 35780.84828339481,
        "timestamp": "2025-12-05T16:54:14.337599+00:00",
        "meta_object_name": "GALAXY 37 (G-37)",
        "meta_object_id": "2023-112A",
        "meta_epoch": "2025-12-05T02:49:13.840320",
        "meta_mean_motion": 1.00269912,
        "meta_eccentricity": 0.00024009,
        "meta_inclination": 0.0107,
        "meta_ra_of_asc_node": 314.1921,
        "meta_arg_of_pericenter": 302.9074,
        "meta_mean_anomaly": 92.3955,
        "meta_ephemeris_type": 0,
        "meta_classification_type": "U",
        "meta_norad_cat_id": 57493,
        "meta_element_set_no": 999,
        "meta_rev_at_epoch": 859,
        "meta_bstar": 0,
        "meta_mean_motion_dot": 6.1e-07,
        "meta_mean_motion_ddot": 0,
        "tle_line1": "1 57493U 23112A   25339.11752130  .00000061  00000+0  00000+0 0  9994",
        "tle_line2": "2 57493   0.0107 314.1921 0002400 302.9074  92.3955  1.00269912  8595"
      },
      "geometry": {
        "type": "Point",
        "coordinates": [
          -158.71683456092921,
          -0.030841060730139803
        ]
      }
    }
  ]
}